{
  "type": "FeatureCollection",
  "features": [
    {
      "type": "Feature",
      "properties": {
        "norad_id": 66704,
        "name": "FLOCK 4H-1",
        "group": "last-30-days",
        "lat": 38.79027220455977,
        "lon": -104.23343712475115,
        "alt_km": 503.23520506906334,
        "timestamp": "2025-12-24T03:53:28.361000+00:00",
        "meta_object_name": "FLOCK 4H-1",
        "meta_object_id": "2025-276AQ",
        "meta_epoch": "2025-12-23T19:22:04.799136",
        "meta_mean_motion": 15.18779262,
        "meta_eccentricity": 0.0008478,
        "meta_inclination": 97.4382,
        "meta_ra_of_asc_node": 69.3895,
        "meta_arg_of_pericenter": 208.7132,
        "meta_mean_anomaly": 151.3636,
        "meta_ephemeris_type": 0,
        "meta_classification_type": "U",
        "meta_norad_cat_id": 66704,
        "meta_element_set_no": 999,
        "meta_rev_at_epoch": 380,
        "meta_bstar": 0.026259,
        "meta_mean_motion_dot": 0.00584228,
        "meta_mean_motion_ddot": 0,
        "tle_line1": "1 66704U 25276AQ  25357.80699999  .00584228  00000+0  26259-1 0  9999",
        "tle_line2": "2 66704  97.4382  69.3895 0008478 208.7132 151.3636 15.18779262  3802"
      },
      "geometry": {
        "type": "Point",
        "coordinates": [
          -104.23343712475115,
          38.79027220455977
        ]
      }
    },
    {
      "type": "Feature",
      "properties": {
        "norad_id": 66705,
        "name": "FLOCK 4H-2",
        "group": "last-30-days",
        "lat": 37.672585529379226,
        "lon": -104.47087808677934,
        "alt_km": 507.8484888487037,
        "timestamp": "2025-12-24T03:53:28.361010+00:00",
        "meta_object_name": "FLOCK 4H-2",
        "meta_object_id": "2025-276AR",
        "meta_epoch": "2025-12-23T17:46:37.687008",
        "meta_mean_motion": 15.18145826,
        "meta_eccentricity": 0.0001336,
        "meta_inclination": 97.4377,
        "meta_ra_of_asc_node": 69.3257,
        "meta_arg_of_pericenter": 156.0605,
        "meta_mean_anomaly": 204.0691,
        "meta_ephemeris_type": 0,
        "meta_classification_type": "U",
        "meta_norad_cat_id": 66705,
        "meta_element_set_no": 999,
        "meta_rev_at_epoch": 379,
        "meta_bstar": 0.00039887,
        "meta_mean_motion_dot": 8.08e-05,
        "meta_mean_motion_ddot": 0,
        "tle_line1": "1 66705U 25276AR  25357.74071397  .00008080  00000+0  39887-3 0  9999",
        "tle_line2": "2 66705  97.4377  69.3257 0001336 156.0605 204.0691 15.18145826  3793"
      },
      "geometry": {
        "type": "Point",
        "coordinates": [
          -104.47087808677934,
          37.672585529379226
        ]
      }
    },
    {
      "type": "Feature",
      "properties": {
        "norad_id": 66706,
        "name": "FLOCK 4H-3",
        "group": "last-30-days",
        "lat": 80.58821161710647,
        "lon": 17.663496917091962,
        "alt_km": 507.8761142578278,
        "timestamp": "2025-12-24T03:53:28.361023+00:00",
        "meta_object_name": "FLOCK 4H-3",
        "meta_object_id": "2025-276AS",
        "meta_epoch": "2025-12-23T05:21:54.701856",
        "meta_mean_motion": 15.17477683,
        "meta_eccentricity": 0.00029112,
        "meta_inclination": 97.4444,
        "meta_ra_of_asc_node": 68.8171,
        "meta_arg_of_pericenter": 244.1639,
        "meta_mean_anomaly": 115.9295,
        "meta_ephemeris_type": 0,
        "meta_classification_type": "U",
        "meta_norad_cat_id": 66706,
        "meta_element_set_no": 999,
        "meta_rev_at_epoch": 371,
        "meta_bstar": 0.00030065091,
        "meta_mean_motion_dot": 5.957e-05,
        "meta_mean_motion_ddot": 0,
        "tle_line1": "1 66706U 25276AS  25357.22354979  .00005957  00000+0  30065-3 0  9992",
        "tle_line2": "2 66706  97.4444  68.8171 0002911 244.1639 115.9295 15.17477683  3714"
      },
      "geometry": {
        "type": "Point",
        "coordinates": [
          17.663496917091962,
          80.58821161710647
        ]
      }
    },
    {
      "type": "Feature",
      "properties": {
        "norad_id": 66707,
        "name": "FLOCK 4H-4",
        "group": "last-30-days",
        "lat": 60.647149090585664,
        "lon": 56.28278207461026,
        "alt_km": 510.85977228957927,
        "timestamp": "2025-12-24T03:53:28.361033+00:00",
        "meta_object_name": "FLOCK 4H-4",
        "meta_object_id": "2025-276AT",
        "meta_epoch": "2025-12-23T18:07:25.582944",
        "meta_mean_motion": 15.17218462,
        "meta_eccentricity": 0.0003623,
        "meta_inclination": 97.4427,
        "meta_ra_of_asc_node": 69.3243,
        "meta_arg_of_pericenter": 247.5748,
        "meta_mean_anomaly": 112.5102,
        "meta_ephemeris_type": 0,
        "meta_classification_type": "U",
        "meta_norad_cat_id": 66707,
        "meta_element_set_no": 999,
        "meta_rev_at_epoch": 379,
        "meta_bstar": 0.00048977,
        "meta_mean_motion_dot": 9.678e-05,
        "meta_mean_motion_ddot": 0,
        "tle_line1": "1 66707U 25276AT  25357.75515721  .00009678  00000+0  48977-3 0  9990",
        "tle_line2": "2 66707  97.4427  69.3243 0003623 247.5748 112.5102 15.17218462  3797"
      },
      "geometry": {
        "type": "Point",
        "coordinates": [
          56.28278207461026,
          60.647149090585664
        ]
      }
    },
    {
      "type": "Feature",
      "properties": {
        "norad_id": 66708,
        "name": "FLOCK 4H-5",
        "group": "last-30-days",
        "lat": 31.07348301108971,
        "lon": -105.73809607892889,
        "alt_km": 508.9422267980244,
        "timestamp": "2025-12-24T03:53:28.361043+00:00",
        "meta_object_name": "FLOCK 4H-5",
        "meta_object_id": "2025-276AU",
        "meta_epoch": "2025-12-23T17:44:53.149920",
        "meta_mean_motion": 15.18178072,
        "meta_eccentricity": 0.0001214,
        "meta_inclination": 97.4384,
        "meta_ra_of_asc_node": 69.3308,
        "meta_arg_of_pericenter": 124.3408,
        "meta_mean_anomaly": 235.7941,
        "meta_ephemeris_type": 0,
        "meta_classification_type": "U",
        "meta_norad_cat_id": 66708,
        "meta_element_set_no": 999,
        "meta_rev_at_epoch": 379,
        "meta_bstar": 0.00049046,
        "meta_mean_motion_dot": 9.962e-05,
        "meta_mean_motion_ddot": 0,
        "tle_line1": "1 66708U 25276AU  25357.73950405  .00009962  00000+0  49046-3 0  9995",
        "tle_line2": "2 66708  97.4384  69.3308 0001214 124.3408 235.7941 15.18178072  3793"
      },
      "geometry": {
        "type": "Point",
        "coordinates": [
          -105.73809607892889,
          31.07348301108971
        ]
      }
    },
    {
      "type": "Feature",
      "properties": {
        "norad_id": 66709,
        "name": "FLOCK 4H-6",
        "group": "last-30-days",
        "lat": 51.9555880021437,
        "lon": -100.62648225425063,
        "alt_km": 506.81185940817886,
        "timestamp": "2025-12-24T03:53:28.361055+00:00",
        "meta_object_name": "FLOCK 4H-6",
        "meta_object_id": "2025-276AV",
        "meta_epoch": "2025-12-23T17:50:21.241824",
        "meta_mean_motion": 15.17923646,
        "meta_eccentricity": 0.0002752,
        "meta_inclination": 97.4431,
        "meta_ra_of_asc_node": 69.3445,
        "meta_arg_of_pericenter": 203.6295,
        "meta_mean_anomaly": 156.4813,
        "meta_ephemeris_type": 0,
        "meta_classification_type": "U",
        "meta_norad_cat_id": 66709,
        "meta_element_set_no": 999,
        "meta_rev_at_epoch": 379,
        "meta_bstar": 0.00047995,
        "meta_mean_motion_dot": 9.676e-05,
        "meta_mean_motion_ddot": 0,
        "tle_line1": "1 66709U 25276AV  25357.74330141  .00009676  00000+0  47995-3 0  9999",
        "tle_line2": "2 66709  97.4431  69.3445 0002752 203.6295 156.4813 15.17923646  3793"
      },
      "geometry": {
        "type": "Point",
        "coordinates": [
          -100.62648225425063,
          51.9555880021437
        ]
      }
    },
    {
      "type": "Feature",
      "properties": {
        "norad_id": 66710,
        "name": "FLOCK 4H-7",
        "group": "last-30-days",
        "lat": 81.12112130208105,
        "lon": 12.957949751624323,
        "alt_km": 506.66196102023423,
        "timestamp": "2025-12-24T03:53:28.361066+00:00",
        "meta_object_name": "FLOCK 4H-7",
        "meta_object_id": "2025-276AW",
        "meta_epoch": "2025-12-23T18:01:19.228800",
        "meta_mean_motion": 15.17493395,
        "meta_eccentricity": 0.0001036,
        "meta_inclination": 97.4388,
        "meta_ra_of_asc_node": 69.3133,
        "meta_arg_of_pericenter": 284.9605,
        "meta_mean_anomaly": 75.1513,
        "meta_ephemeris_type": 0,
        "meta_classification_type": "U",
        "meta_norad_cat_id": 66710,
        "meta_element_set_no": 999,
        "meta_rev_at_epoch": 379,
        "meta_bstar": 0.00030767,
        "meta_mean_motion_dot": 6.1e-05,
        "meta_mean_motion_ddot": 0,
        "tle_line1": "1 66710U 25276AW  25357.75091700  .00006100  00000+0  30767-3 0  9995",
        "tle_line2": "2 66710  97.4388  69.3133 0001036 284.9605  75.1513 15.17493395  3798"
      },
      "geometry": {
        "type": "Point",
        "coordinates": [
          12.957949751624323,
          81.12112130208105
        ]
      }
    }
  ]
}